[{"OBJECT_NAME":"STARLINK-1434","OBJECT_ID":"2020-035BH","EPOCH":"2026-03-09T05:47:35.213856","MEAN_MOTION":15.26724568,"ECCENTRICITY":0.00053438,"INCLINATION":53.0547,"RA_OF_ASC_NODE":22.1128,"ARG_OF_PERICENTER":88.04,"MEAN_ANOMALY":272.121,"EPHEMERIS_TYPE":0,"CLASSIFICATION_TYPE":"U","NORAD_CAT_ID":45712,"ELEMENT_SET_NO":999,"REV_AT_EPOCH":31932,"BSTAR":0.0020295208,"MEAN_MOTION_DOT":0.00054112,"MEAN_MOTION_DDOT":0},{"OBJECT_NAME":"STARLINK-32324","OBJECT_ID":"2024-202U","EPOCH":"2026-03-09T11:36:41.724000","MEAN_MOTION":15.27558638,"ECCENTRICITY":7.784e-5,"INCLINATION":43.0028,"RA_OF_ASC_NODE":239.3682,"ARG_OF_PERICENTER":238.0815,"MEAN_ANOMALY":121.9961,"EPHEMERIS_TYPE":0,"CLASSIFICATION_TYPE":"U","NORAD_CAT_ID":61863,"ELEMENT_SET_NO":999,"REV_AT_EPOCH":7529,"BSTAR":0.00023589662,"MEAN_MOTION_DOT":6.231e-5,"MEAN_MOTION_DDOT":0}]
